LANDSAT 9               
1 49260U 21088A   23240.12823724  .00000466  00000+0  11357-3 0  9995
2 49260  98.2249 309.1431 0001446  99.0622 261.0740 14.57101575101863
